SL-14 R/B               
1 16792U 86046B   26036.67869043  .00000698  00000+0  77699-4 0  9993
2 16792  82.4820 110.4317 0022451 337.4146  22.6080 14.85559604121650
SL-14 R/B               
1 16882U 86055B   26036.82017721  .00000868  00000+0  97201-4 0  9998
2 16882  82.5231 156.6185 0020378  78.7159  36.7088 14.85609048114639
AJISAI (EGS)            
1 16908U 86061A   26036.93838518 -.00000096  00000+0  10027-4 0  9996
2 16908  50.0068 190.9825 0011237 205.2274 333.6776 12.44515352464040
COSMOS 1812             
1 17295U 87003A   26036.97816377  .00309822  35302-4  86744-3 0  9990
2 17295  82.4775 231.5344 0000938 328.0714  32.0504 15.93568154139392
SL-14 R/B               
1 17567U 87024B   26036.72376500  .00000732  00000+0  80638-4 0  9994
2 17567  82.5295 122.8063 0018455  11.5172 348.6463 14.86101558 83386
COSMOS 1833             
1 17589U 87027A   26036.22630911  .00000085  00000+0  71363-4 0  9991
2 17589  70.9208  34.2453 0024850 257.8554 101.9783 14.13055667  5736
SL-16 R/B               
1 17590U 87027B   26036.92924305 -.00000089  00000+0 -20350-4 0  9999
2 17590  71.0050 343.4199 0005246 197.0742 163.0207 14.17163852 10847
SL-14 R/B               
1 17912U 87038B   26036.90435458  .00000746  00000+0  83876-4 0  9993
2 17912  82.5044 326.7428 0017679 270.0726  89.8464 14.85337310 74512
COSMOS 1844             
1 17973U 87041A   26036.57866822  .00000349  00000+0  20606-3 0  9990
2 17973  70.8981 101.9097 0028786  69.5429 290.8779 14.14538106999041
SL-14 R/B               
1 18153U 87055B   26036.95416736  .00000740  00000+0  82339-4 0  9990
2 18153  82.4992  18.9375 0022112 116.4959 243.8529 14.85589863 65225
COSMOS 1867             
1 18187U 87060A   26036.93365077 -.00000016  00000+0  31557-4 0  9995
2 18187  65.0107  35.6348 0014085 276.2824  83.6656 14.31497763 15391
SL-14 R/B               
1 18749U 88001B   26036.94729739  .00000633  00000+0  70386-4 0  9992
2 18749  82.5105 225.2170 0017727 348.1978  11.8820 14.85489880 37314
