CCSDS_OMM_VERS = 2.0
CREATION_DATE  = 
ORIGINATOR     = 

OBJECT_NAME    = SL-14 R/B
OBJECT_ID      = 1986-046B
CENTER_NAME    = EARTH
REF_FRAME      = TEME
TIME_SYSTEM    = UTC
MEAN_ELEMENT_THEORY = SGP/SGP4

EPOCH          = 2026-02-05T16:17:18.853152
MEAN_MOTION    = 14.85559604
ECCENTRICITY   = .0022451
INCLINATION    = 82.4820
RA_OF_ASC_NODE = 110.4317
ARG_OF_PERICENTER = 337.4146
MEAN_ANOMALY   = 22.6080

EPHEMERIS_TYPE = 0
CLASSIFICATION_TYPE = U
NORAD_CAT_ID   = 16792
ELEMENT_SET_NO = 999
REV_AT_EPOCH   = 12165
BSTAR          = .77699E-4
MEAN_MOTION_DOT = .698E-5
MEAN_MOTION_DDOT = 0

CCSDS_OMM_VERS = 2.0
CREATION_DATE  = 
ORIGINATOR     = 

OBJECT_NAME    = SL-14 R/B
OBJECT_ID      = 1986-055B
CENTER_NAME    = EARTH
REF_FRAME      = TEME
TIME_SYSTEM    = UTC
MEAN_ELEMENT_THEORY = SGP/SGP4

EPOCH          = 2026-02-05T19:41:03.310944
MEAN_MOTION    = 14.85609048
ECCENTRICITY   = .00203781
INCLINATION    = 82.5231
RA_OF_ASC_NODE = 156.6185
ARG_OF_PERICENTER = 78.7159
MEAN_ANOMALY   = 36.7088

EPHEMERIS_TYPE = 0
CLASSIFICATION_TYPE = U
NORAD_CAT_ID   = 16882
ELEMENT_SET_NO = 999
REV_AT_EPOCH   = 11463
BSTAR          = .9720125E-4
MEAN_MOTION_DOT = .868E-5
MEAN_MOTION_DDOT = 0

CCSDS_OMM_VERS = 2.0
CREATION_DATE  = 
ORIGINATOR     = 

OBJECT_NAME    = AJISAI (EGS)
OBJECT_ID      = 1986-061A
CENTER_NAME    = EARTH
REF_FRAME      = TEME
TIME_SYSTEM    = UTC
MEAN_ELEMENT_THEORY = SGP/SGP4

EPOCH          = 2026-02-05T22:31:16.479552
MEAN_MOTION    = 12.44515352
ECCENTRICITY   = .00112374
INCLINATION    = 50.0068
RA_OF_ASC_NODE = 190.9825
ARG_OF_PERICENTER = 205.2274
MEAN_ANOMALY   = 333.6776

EPHEMERIS_TYPE = 0
CLASSIFICATION_TYPE = U
NORAD_CAT_ID   = 16908
ELEMENT_SET_NO = 999
REV_AT_EPOCH   = 46404
BSTAR          = .10027042E-4
MEAN_MOTION_DOT = -.96E-6
MEAN_MOTION_DDOT = 0

CCSDS_OMM_VERS = 2.0
CREATION_DATE  = 
ORIGINATOR     = 

OBJECT_NAME    = COSMOS 1812
OBJECT_ID      = 1987-003A
CENTER_NAME    = EARTH
REF_FRAME      = TEME
TIME_SYSTEM    = UTC
MEAN_ELEMENT_THEORY = SGP/SGP4

EPOCH          = 2026-02-05T23:28:33.349728
MEAN_MOTION    = 15.93568154
ECCENTRICITY   = .00009389
INCLINATION    = 82.4775
RA_OF_ASC_NODE = 231.5344
ARG_OF_PERICENTER = 328.0714
MEAN_ANOMALY   = 32.0504

EPHEMERIS_TYPE = 0
CLASSIFICATION_TYPE = U
NORAD_CAT_ID   = 17295
ELEMENT_SET_NO = 999
REV_AT_EPOCH   = 13939
BSTAR          = .86744221E-3
MEAN_MOTION_DOT = .309822E-2
MEAN_MOTION_DDOT = .35301649E-4

CCSDS_OMM_VERS = 2.0
CREATION_DATE  = 
ORIGINATOR     = 

OBJECT_NAME    = SL-14 R/B
OBJECT_ID      = 1987-024B
CENTER_NAME    = EARTH
REF_FRAME      = TEME
TIME_SYSTEM    = UTC
MEAN_ELEMENT_THEORY = SGP/SGP4

EPOCH          = 2026-02-05T17:22:13.296000
MEAN_MOTION    = 14.86101558
ECCENTRICITY   = .0018455
INCLINATION    = 82.5295
RA_OF_ASC_NODE = 122.8063
ARG_OF_PERICENTER = 11.5172
MEAN_ANOMALY   = 348.6463

EPHEMERIS_TYPE = 0
CLASSIFICATION_TYPE = U
NORAD_CAT_ID   = 17567
ELEMENT_SET_NO = 999
REV_AT_EPOCH   = 8338
BSTAR          = .80638E-4
MEAN_MOTION_DOT = .732E-5
MEAN_MOTION_DDOT = 0

CCSDS_OMM_VERS = 2.0
CREATION_DATE  = 
ORIGINATOR     = 

OBJECT_NAME    = COSMOS 1833
OBJECT_ID      = 1987-027A
CENTER_NAME    = EARTH
REF_FRAME      = TEME
TIME_SYSTEM    = UTC
MEAN_ELEMENT_THEORY = SGP/SGP4

EPOCH          = 2026-02-05T05:25:53.107104
MEAN_MOTION    = 14.13055667
ECCENTRICITY   = .002485
INCLINATION    = 70.9208
RA_OF_ASC_NODE = 34.2453
ARG_OF_PERICENTER = 257.8554
MEAN_ANOMALY   = 101.9783

EPHEMERIS_TYPE = 0
CLASSIFICATION_TYPE = U
NORAD_CAT_ID   = 17589
ELEMENT_SET_NO = 999
REV_AT_EPOCH   = 573
BSTAR          = .71363E-4
MEAN_MOTION_DOT = .85E-6
MEAN_MOTION_DDOT = 0

CCSDS_OMM_VERS = 2.0
CREATION_DATE  = 
ORIGINATOR     = 

OBJECT_NAME    = SL-16 R/B
OBJECT_ID      = 1987-027B
CENTER_NAME    = EARTH
REF_FRAME      = TEME
TIME_SYSTEM    = UTC
MEAN_ELEMENT_THEORY = SGP/SGP4

EPOCH          = 2026-02-05T22:18:06.599520
MEAN_MOTION    = 14.17163852
ECCENTRICITY   = .00052461
INCLINATION    = 71.0050
RA_OF_ASC_NODE = 343.4199
ARG_OF_PERICENTER = 197.0742
MEAN_ANOMALY   = 163.0207

EPHEMERIS_TYPE = 0
CLASSIFICATION_TYPE = U
NORAD_CAT_ID   = 17590
ELEMENT_SET_NO = 999
REV_AT_EPOCH   = 1084
BSTAR          = -.2034956E-4
MEAN_MOTION_DOT = -.89E-6
MEAN_MOTION_DDOT = 0

CCSDS_OMM_VERS = 2.0
CREATION_DATE  = 
ORIGINATOR     = 

OBJECT_NAME    = SL-14 R/B
OBJECT_ID      = 1987-038B
CENTER_NAME    = EARTH
REF_FRAME      = TEME
TIME_SYSTEM    = UTC
MEAN_ELEMENT_THEORY = SGP/SGP4

EPOCH          = 2026-02-05T21:42:16.235712
MEAN_MOTION    = 14.85337310
ECCENTRICITY   = .00176794
INCLINATION    = 82.5044
RA_OF_ASC_NODE = 326.7428
ARG_OF_PERICENTER = 270.0726
MEAN_ANOMALY   = 89.8464

EPHEMERIS_TYPE = 0
CLASSIFICATION_TYPE = U
NORAD_CAT_ID   = 17912
ELEMENT_SET_NO = 999
REV_AT_EPOCH   = 7451
BSTAR          = .83875652E-4
MEAN_MOTION_DOT = .746E-5
MEAN_MOTION_DDOT = 0

CCSDS_OMM_VERS = 2.0
CREATION_DATE  = 
ORIGINATOR     = 

OBJECT_NAME    = COSMOS 1844
OBJECT_ID      = 1987-041A
CENTER_NAME    = EARTH
REF_FRAME      = TEME
TIME_SYSTEM    = UTC
MEAN_ELEMENT_THEORY = SGP/SGP4

EPOCH          = 2026-02-05T13:53:16.934208
MEAN_MOTION    = 14.14538106
ECCENTRICITY   = .0028786
INCLINATION    = 70.8981
RA_OF_ASC_NODE = 101.9097
ARG_OF_PERICENTER = 69.5429
MEAN_ANOMALY   = 290.8779

EPHEMERIS_TYPE = 0
CLASSIFICATION_TYPE = U
NORAD_CAT_ID   = 17973
ELEMENT_SET_NO = 999
REV_AT_EPOCH   = 99904
BSTAR          = .20606E-3
MEAN_MOTION_DOT = .349E-5
MEAN_MOTION_DDOT = 0

CCSDS_OMM_VERS = 2.0
CREATION_DATE  = 
ORIGINATOR     = 

OBJECT_NAME    = SL-14 R/B
OBJECT_ID      = 1987-055B
CENTER_NAME    = EARTH
REF_FRAME      = TEME
TIME_SYSTEM    = UTC
MEAN_ELEMENT_THEORY = SGP/SGP4

EPOCH          = 2026-02-05T22:54:00.059904
MEAN_MOTION    = 14.85589863
ECCENTRICITY   = .00221124
INCLINATION    = 82.4992
RA_OF_ASC_NODE = 18.9375
ARG_OF_PERICENTER = 116.4959
MEAN_ANOMALY   = 243.8529

EPHEMERIS_TYPE = 0
CLASSIFICATION_TYPE = U
NORAD_CAT_ID   = 18153
ELEMENT_SET_NO = 999
REV_AT_EPOCH   = 6522
BSTAR          = .82339062E-4
MEAN_MOTION_DOT = .74E-5
MEAN_MOTION_DDOT = 0

CCSDS_OMM_VERS = 2.0
CREATION_DATE  = 
ORIGINATOR     = 

OBJECT_NAME    = COSMOS 1867
OBJECT_ID      = 1987-060A
CENTER_NAME    = EARTH
REF_FRAME      = TEME
TIME_SYSTEM    = UTC
MEAN_ELEMENT_THEORY = SGP/SGP4

EPOCH          = 2026-02-05T22:24:27.426528
MEAN_MOTION    = 14.31497763
ECCENTRICITY   = .00140852
INCLINATION    = 65.0107
RA_OF_ASC_NODE = 35.6348
ARG_OF_PERICENTER = 276.2824
MEAN_ANOMALY   = 83.6656

EPHEMERIS_TYPE = 0
CLASSIFICATION_TYPE = U
NORAD_CAT_ID   = 18187
ELEMENT_SET_NO = 999
REV_AT_EPOCH   = 1539
BSTAR          = .3155704E-4
MEAN_MOTION_DOT = -.16E-6
MEAN_MOTION_DDOT = 0

CCSDS_OMM_VERS = 2.0
CREATION_DATE  = 
ORIGINATOR     = 

OBJECT_NAME    = SL-14 R/B
OBJECT_ID      = 1988-001B
CENTER_NAME    = EARTH
REF_FRAME      = TEME
TIME_SYSTEM    = UTC
MEAN_ELEMENT_THEORY = SGP/SGP4

EPOCH          = 2026-02-05T22:44:06.494496
MEAN_MOTION    = 14.85489880
ECCENTRICITY   = .00177275
INCLINATION    = 82.5105
RA_OF_ASC_NODE = 225.2170
ARG_OF_PERICENTER = 348.1978
MEAN_ANOMALY   = 11.8820

EPHEMERIS_TYPE = 0
CLASSIFICATION_TYPE = U
NORAD_CAT_ID   = 18749
ELEMENT_SET_NO = 999
REV_AT_EPOCH   = 3731
BSTAR          = .70386292E-4
MEAN_MOTION_DOT = .633E-5
MEAN_MOTION_DDOT = 0

